{"type": "FeatureCollection", "features": [ {"type": "Feature", "properties": {"norad_id": 33825, "name": "COSMOS 2251 DEB", "group": "cosmos-2251-debris", "lat": -35.24624956536019, "lon": 11.95623114977239, "alt_km": 614.4819057764262, "timestamp": "2025-12-14T20:40:32.165613+00:00", "meta": {"OBJECT_NAME": "COSMOS 2251 DEB", "OBJECT_ID": "1993-036BS", "EPOCH": "2025-12-14T06:28:07.176000", "MEAN_MOTION": 14.69781525, "ECCENTRICITY": 0.00846144, "INCLINATION": 73.9857, "RA_OF_ASC_NODE": 24.8162, "ARG_OF_PERICENTER": 351.4776, "MEAN_ANOMALY": 81.2824, "EPHEMERIS_TYPE": 0, "CLASSIFICATION_TYPE": "U", "NORAD_CAT_ID": 33825, "ELEMENT_SET_NO": 999, "REV_AT_EPOCH": 88902, "BSTAR": 0.00082001267, "MEAN_MOTION_DOT": 5.14e-05, "MEAN_MOTION_DDOT": 0}, "tle": {"line1": "1 33825U 93036BS  25348.26952750  .00005140  00000+0  82001-3 0  9993", "line2": "2 33825  73.9857  24.8162 0084614 351.4776  81.2824 14.69781525889021"}}, "geometry": {"type": "Point", "coordinates": [11.95623114977239, -35.24624956536019]}}, {"type": "Feature", "properties": {"norad_id": 33826, "name": "COSMOS 2251 DEB", "group": "cosmos-2251-debris", "lat": 68.54515601796271, "lon": 92.52059009308702, "alt_km": 655.8121222073614, "timestamp": "2025-12-14T20:40:32.165624+00:00", "meta": {"OBJECT_NAME": "COSMOS 2251 DEB", "OBJECT_ID": "1993-036BT", "EPOCH": "2025-12-14T07:26:36.968640", "MEAN_MOTION": 14.51732812, "ECCENTRICITY": 0.00829643, "INCLINATION": 74.0653, "RA_OF_ASC_NODE": 46.9236, "ARG_OF_PERICENTER": 90.7466, "MEAN_ANOMALY": 344.7385, "EPHEMERIS_TYPE": 0, "CLASSIFICATION_TYPE": "U", "NORAD_CAT_ID": 33826, "ELEMENT_SET_NO": 999, "REV_AT_EPOCH": 87792, "BSTAR": 0.00097399517, "MEAN_MOTION_DOT": 4.066e-05, "MEAN_MOTION_DDOT": 0}, "tle": {"line1": "1 33826U 93036BT  25348.31015010  .00004066  00000+0  97400-3 0  9994", "line2": "2 33826  74.0653  46.9236 0082964  90.7466 344.7385 14.51732812877921"}}, "geometry": {"type": "Point", "coordinates": [92.52059009308702, 68.54515601796271]}}, {"type": "Feature", "properties": {"norad_id": 33828, "name": "COSMOS 2251 DEB", "group": "cosmos-2251-debris", "lat": -73.06448215087266, "lon": 164.19305447223005, "alt_km": 733.1239328018619, "timestamp": "2025-12-14T20:40:32.165635+00:00", "meta": {"OBJECT_NAME": "COSMOS 2251 DEB", "OBJECT_ID": "1993-036BV", "EPOCH": "2025-12-14T03:18:57.989952", "MEAN_MOTION": 14.44339323, "ECCENTRICITY": 0.00294716, "INCLINATION": 74.0467, "RA_OF_ASC_NODE": 235.4897, "ARG_OF_PERICENTER": 308.2191, "MEAN_ANOMALY": 168.2698, "EPHEMERIS_TYPE": 0, "CLASSIFICATION_TYPE": "U", "NORAD_CAT_ID": 33828, "ELEMENT_SET_NO": 999, "REV_AT_EPOCH": 88333, "BSTAR": 0.0005762987, "MEAN_MOTION_DOT": 1.968e-05, "MEAN_MOTION_DDOT": 0}, "tle": {"line1": "1 33828U 93036BV  25348.13817118  .00001968  00000+0  57630-3 0  9994", "line2": "2 33828  74.0467 235.4897 0029471 308.2191 168.2698 14.44339323883330"}}, "geometry": {"type": "Point", "coordinates": [164.19305447223005, -73.06448215087266]}}, {"type": "Feature", "properties": {"norad_id": 33830, "name": "COSMOS 2251 DEB", "group": "cosmos-2251-debris", "lat": 37.97426316756849, "lon": -120.87879775772025, "alt_km": 618.3403216350944, "timestamp": "2025-12-14T20:40:32.165645+00:00", "meta": {"OBJECT_NAME": "COSMOS 2251 DEB", "OBJECT_ID": "1993-036BX", "EPOCH": "2025-12-14T03:09:15.214176", "MEAN_MOTION": 14.76921967, "ECCENTRICITY": 0.00424172, "INCLINATION": 74.0323, "RA_OF_ASC_NODE": 227.6375, "ARG_OF_PERICENTER": 347.4452, "MEAN_ANOMALY": 131.9926, "EPHEMERIS_TYPE": 0, "CLASSIFICATION_TYPE": "U", "NORAD_CAT_ID": 33830, "ELEMENT_SET_NO": 999, "REV_AT_EPOCH": 89492, "BSTAR": 0.00093757354, "MEAN_MOTION_DOT": 6.667e-05, "MEAN_MOTION_DDOT": 0}, "tle": {"line1": "1 33830U 93036BX  25348.13142609  .00006667  00000+0  93757-3 0  9994", "line2": "2 33830  74.0323 227.6375 0042417 347.4452 131.9926 14.76921967894922"}}, "geometry": {"type": "Point", "coordinates": [-120.87879775772025, 37.97426316756849]}}, {"type": "Feature", "properties": {"norad_id": 33832, "name": "COSMOS 2251 DEB", "group": "cosmos-2251-debris", "lat": -32.66924962964172, "lon": -164.63740225982957, "alt_km": 696.5321226195074, "timestamp": "2025-12-14T20:40:32.165655+00:00", "meta": {"OBJECT_NAME": "COSMOS 2251 DEB", "OBJECT_ID": "1993-036BZ", "EPOCH": "2025-12-14T01:48:18.709056", "MEAN_MOTION": 14.60671112, "ECCENTRICITY": 0.0024742, "INCLINATION": 74.0541, "RA_OF_ASC_NODE": 207.4264, "ARG_OF_PERICENTER": 238.2147, "MEAN_ANOMALY": 274.6196, "EPHEMERIS_TYPE": 0, "CLASSIFICATION_TYPE": "U", "NORAD_CAT_ID": 33832, "ELEMENT_SET_NO": 999, "REV_AT_EPOCH": 88444, "BSTAR": 0.0014048889, "MEAN_MOTION_DOT": 6.848e-05, "MEAN_MOTION_DDOT": 0}, "tle": {"line1": "1 33832U 93036BZ  25348.07521654  .00006848  00000+0  14049-2 0  9997", "line2": "2 33832  74.0541 207.4264 0024742 238.2147 274.6196 14.60671112884445"}}, "geometry": {"type": "Point", "coordinates": [-164.63740225982957, -32.66924962964172]}}, {"type": "Feature", "properties": {"norad_id": 33835, "name": "COSMOS 2251 DEB", "group": "cosmos-2251-debris", "lat": 6.23505561324532, "lon": -84.73855066859618, "alt_km": 652.2154572838563, "timestamp": "2025-12-14T20:40:32.165666+00:00", "meta": {"OBJECT_NAME": "COSMOS 2251 DEB", "OBJECT_ID": "1993-036CC", "EPOCH": "2025-12-14T06:53:54.537792", "MEAN_MOTION": 14.6227421, "ECCENTRICITY": 0.0054544, "INCLINATION": 74.057, "RA_OF_ASC_NODE": 98.1487, "ARG_OF_PERICENTER": 151.2448, "MEAN_ANOMALY": 241.2582, "EPHEMERIS_TYPE": 0, "CLASSIFICATION_TYPE": "U", "NORAD_CAT_ID": 33835, "ELEMENT_SET_NO": 999, "REV_AT_EPOCH": 88812, "BSTAR": 0.0011790688, "MEAN_MOTION_DOT": 6.05e-05, "MEAN_MOTION_DDOT": 0}, "tle": {"line1": "1 33835U 93036CC  25348.28743678  .00006050  00000+0  11791-2 0  9991", "line2": "2 33835  74.0570  98.1487 0054544 151.2448 241.2582 14.62274210888121"}}, "geometry": {"type": "Point", "coordinates": [-84.73855066859618, 6.23505561324532]}}, {"type": "Feature", "properties": {"norad_id": 33836, "name": "COSMOS 2251 DEB", "group": "cosmos-2251-debris", "lat": -29.434046783428887, "lon": -114.55522804794421, "alt_km": 647.6704371410997, "timestamp": "2025-12-14T20:40:32.165676+00:00", "meta": {"OBJECT_NAME": "COSMOS 2251 DEB", "OBJECT_ID": "1993-036CD", "EPOCH": "2025-12-14T05:16:49.569888", "MEAN_MOTION": 14.79660519, "ECCENTRICITY": 0.00226324, "INCLINATION": 73.9971, "RA_OF_ASC_NODE": 256.0294, "ARG_OF_PERICENTER": 108.5734, "MEAN_ANOMALY": 45.4281, "EPHEMERIS_TYPE": 0, "CLASSIFICATION_TYPE": "U", "NORAD_CAT_ID": 33836, "ELEMENT_SET_NO": 999, "REV_AT_EPOCH": 64110, "BSTAR": 0.0013213034, "MEAN_MOTION_DOT": 9.94e-05, "MEAN_MOTION_DDOT": 0}, "tle": {"line1": "1 33836U 93036CD  25348.22001817  .00009940  00000+0  13213-2 0  9990", "line2": "2 33836  73.9971 256.0294 0022632 108.5734  45.4281 14.79660519641106"}}, "geometry": {"type": "Point", "coordinates": [-114.55522804794421, -29.434046783428887]}}, {"type": "Feature", "properties": {"norad_id": 33837, "name": "COSMOS 2251 DEB", "group": "cosmos-2251-debris", "lat": 73.83590998345267, "lon": 133.1314061449581, "alt_km": 741.2992180617584, "timestamp": "2025-12-14T20:40:32.165687+00:00", "meta": {"OBJECT_NAME": "COSMOS 2251 DEB", "OBJECT_ID": "1993-036CE", "EPOCH": "2025-12-14T05:22:33.937824", "MEAN_MOTION": 14.5070568, "ECCENTRICITY": 0.00358782, "INCLINATION": 74.0132, "RA_OF_ASC_NODE": 52.8039, "ARG_OF_PERICENTER": 274.274, "MEAN_ANOMALY": 85.4321, "EPHEMERIS_TYPE": 0, "CLASSIFICATION_TYPE": "U", "NORAD_CAT_ID": 33837, "ELEMENT_SET_NO": 999, "REV_AT_EPOCH": 88817, "BSTAR": 0.00035222474, "MEAN_MOTION_DOT": 1.367e-05, "MEAN_MOTION_DDOT": 0}, "tle": {"line1": "1 33837U 93036CE  25348.22400391  .00001367  00000+0  35222-3 0  9991", "line2": "2 33837  74.0132  52.8039 0035878 274.2740  85.4321 14.50705680888178"}}, "geometry": {"type": "Point", "coordinates": [133.1314061449581, 73.83590998345267]}}, {"type": "Feature", "properties": {"norad_id": 33838, "name": "COSMOS 2251 DEB", "group": "cosmos-2251-debris", "lat": -54.27665952144374, "lon": 122.38656611107864, "alt_km": 721.6476592110776, "timestamp": "2025-12-14T20:40:32.165697+00:00", "meta": {"OBJECT_NAME": "COSMOS 2251 DEB", "OBJECT_ID": "1993-036CF", "EPOCH": "2025-12-13T20:37:16.519872", "MEAN_MOTION": 14.4836842, "ECCENTRICITY": 0.00274575, "INCLINATION": 74.0363, "RA_OF_ASC_NODE": 147.7169, "ARG_OF_PERICENTER": 269.4491, "MEAN_ANOMALY": 209.0091, "EPHEMERIS_TYPE": 0, "CLASSIFICATION_TYPE": "U", "NORAD_CAT_ID": 33838, "ELEMENT_SET_NO": 999, "REV_AT_EPOCH": 88585, "BSTAR": 0.00058378741, "MEAN_MOTION_DOT": 2.168e-05, "MEAN_MOTION_DDOT": 0}, "tle": {"line1": "1 33838U 93036CF  25347.85921898  .00002168  00000+0  58379-3 0  9998", "line2": "2 33838  74.0363 147.7169 0027457 269.4491 209.0091 14.48368420885850"}}, "geometry": {"type": "Point", "coordinates": [122.38656611107864, -54.27665952144374]}}, {"type": "Feature", "properties": {"norad_id": 33839, "name": "COSMOS 2251 DEB", "group": "cosmos-2251-debris", "lat": -7.919489892042504, "lon": -159.8779895702616, "alt_km": 634.9206235096499, "timestamp": "2025-12-14T20:40:32.165707+00:00", "meta": {"OBJECT_NAME": "COSMOS 2251 DEB", "OBJECT_ID": "1993-036CG", "EPOCH": "2025-12-14T01:45:16.754112", "MEAN_MOTION": 14.64425568, "ECCENTRICITY": 0.00851466, "INCLINATION": 74.039, "RA_OF_ASC_NODE": 203.918, "ARG_OF_PERICENTER": 315.6869, "MEAN_ANOMALY": 201.0594, "EPHEMERIS_TYPE": 0, "CLASSIFICATION_TYPE": "U", "NORAD_CAT_ID": 33839, "ELEMENT_SET_NO": 999, "REV_AT_EPOCH": 89599, "BSTAR": 0.00029686464, "MEAN_MOTION_DOT": 1.622e-05, "MEAN_MOTION_DDOT": 0}, "tle": {"line1": "1 33839U 93036CG  25348.07311058  .00001622  00000+0  29686-3 0  9998", "line2": "2 33839  74.0390 203.9180 0085146 315.6869 201.0594 14.64425568895992"}}, "geometry": {"type": "Point", "coordinates": [-159.8779895702616, -7.919489892042504]}}]}